{
  "type": "FeatureCollection",
  "features": [
    {
      "type": "Feature",
      "properties": {
        "norad_id": 35432,
        "name": "COSMOS 2251 DEB",
        "group": "cosmos-2251-debris",
        "lat": -69.82298948760592,
        "lon": -27.59054057062054,
        "alt_km": 503.741086750475,
        "timestamp": "2025-12-08T21:31:05.062504+00:00",
        "meta_object_name": "COSMOS 2251 DEB",
        "meta_object_id": "1993-036AKA",
        "meta_epoch": "2025-12-08T09:14:01.951584",
        "meta_mean_motion": 15.21535483,
        "meta_eccentricity": 0.00123385,
        "meta_inclination": 74.0223,
        "meta_ra_of_asc_node": 24.7199,
        "meta_arg_of_pericenter": 346.1042,
        "meta_mean_anomaly": 13.9814,
        "meta_ephemeris_type": 0,
        "meta_classification_type": "U",
        "meta_norad_cat_id": 35432,
        "meta_element_set_no": 999,
        "meta_rev_at_epoch": 87437,
        "meta_bstar": 0.0061257801,
        "meta_mean_motion_dot": 0.0014095,
        "meta_mean_motion_ddot": 0,
        "tle_line1": "1 35432U 93036AKA 25342.38474481  .00140950  00000+0  61258-2 0  9995",
        "tle_line2": "2 35432  74.0223  24.7199 0012338 346.1042  13.9814 15.21535483874378"
      },
      "geometry": {
        "type": "Point",
        "coordinates": [
          -27.59054057062054,
          -69.82298948760592
        ]
      }
    },
    {
      "type": "Feature",
      "properties": {
        "norad_id": 35433,
        "name": "COSMOS 2251 DEB",
        "group": "cosmos-2251-debris",
        "lat": -48.17872632410115,
        "lon": -175.84927245963326,
        "alt_km": 800.4225574724287,
        "timestamp": "2025-12-08T21:31:05.062514+00:00",
        "meta_object_name": "COSMOS 2251 DEB",
        "meta_object_id": "1993-036AKB",
        "meta_epoch": "2025-12-05T19:38:16.327392",
        "meta_mean_motion": 14.34730306,
        "meta_eccentricity": 0.00254596,
        "meta_inclination": 74.0335,
        "meta_ra_of_asc_node": 351.128,
        "meta_arg_of_pericenter": 48.4343,
        "meta_mean_anomaly": 128.9694,
        "meta_ephemeris_type": 0,
        "meta_classification_type": "U",
        "meta_norad_cat_id": 35433,
        "meta_element_set_no": 999,
        "meta_rev_at_epoch": 86481,
        "meta_bstar": 0.00044039966,
        "meta_mean_motion_dot": 1.226e-05,
        "meta_mean_motion_ddot": 0,
        "tle_line1": "1 35433U 93036AKB 25339.81824453  .00001226  00000+0  44040-3 0  9991",
        "tle_line2": "2 35433  74.0335 351.1280 0025459  48.4343 128.9694 14.34730306864810"
      },
      "geometry": {
        "type": "Point",
        "coordinates": [
          -175.84927245963326,
          -48.17872632410115
        ]
      }
    },
    {
      "type": "Feature",
      "properties": {
        "norad_id": 35434,
        "name": "COSMOS 2251 DEB",
        "group": "cosmos-2251-debris",
        "lat": -74.01641550069645,
        "lon": 133.04869438707522,
        "alt_km": 754.5471546791377,
        "timestamp": "2025-12-08T21:31:05.062524+00:00",
        "meta_object_name": "COSMOS 2251 DEB",
        "meta_object_id": "1993-036AKC",
        "meta_epoch": "2025-12-07T22:21:11.338272",
        "meta_mean_motion": 14.25665764,
        "meta_eccentricity": 0.00875677,
        "meta_inclination": 74.0404,
        "meta_ra_of_asc_node": 222.3034,
        "meta_arg_of_pericenter": 294.0481,
        "meta_mean_anomaly": 65.1521,
        "meta_ephemeris_type": 0,
        "meta_classification_type": "U",
        "meta_norad_cat_id": 35434,
        "meta_element_set_no": 999,
        "meta_rev_at_epoch": 86049,
        "meta_bstar": 0.00094505461,
        "meta_mean_motion_dot": 2.307e-05,
        "meta_mean_motion_ddot": 0,
        "tle_line1": "1 35434U 93036AKC 25341.93138123  .00002307  00000+0  94505-3 0  9992",
        "tle_line2": "2 35434  74.0404 222.3034 0087567 294.0481  65.1521 14.25665764860490"
      },
      "geometry": {
        "type": "Point",
        "coordinates": [
          133.04869438707522,
          -74.01641550069645
        ]
      }
    },
    {
      "type": "Feature",
      "properties": {
        "norad_id": 35435,
        "name": "COSMOS 2251 DEB",
        "group": "cosmos-2251-debris",
        "lat": 73.0718122318419,
        "lon": -138.77183813209277,
        "alt_km": 629.5031292440017,
        "timestamp": "2025-12-08T21:31:05.062534+00:00",
        "meta_object_name": "COSMOS 2251 DEB",
        "meta_object_id": "1993-036AKD",
        "meta_epoch": "2025-12-06T15:33:19.570752",
        "meta_mean_motion": 14.78155636,
        "meta_eccentricity": 0.00089158,
        "meta_inclination": 74.011,
        "meta_ra_of_asc_node": 116.0521,
        "meta_arg_of_pericenter": 210.6381,
        "meta_mean_anomaly": 164.7127,
        "meta_ephemeris_type": 0,
        "meta_classification_type": "U",
        "meta_norad_cat_id": 35435,
        "meta_element_set_no": 999,
        "meta_rev_at_epoch": 87449,
        "meta_bstar": 0.0041982547,
        "meta_mean_motion_dot": 0.00030535,
        "meta_mean_motion_ddot": 0,
        "tle_line1": "1 35435U 93036AKD 25340.64814318  .00030535  00000+0  41983-2 0  9992",
        "tle_line2": "2 35435  74.0110 116.0521 0008915 210.6381 164.7127 14.78155636874491"
      },
      "geometry": {
        "type": "Point",
        "coordinates": [
          -138.77183813209277,
          73.0718122318419
        ]
      }
    },
    {
      "type": "Feature",
      "properties": {
        "norad_id": 35439,
        "name": "COSMOS 2251 DEB",
        "group": "cosmos-2251-debris",
        "lat": 49.444480411461555,
        "lon": -58.240936479006756,
        "alt_km": 1090.067251823476,
        "timestamp": "2025-12-08T21:31:05.062544+00:00",
        "meta_object_name": "COSMOS 2251 DEB",
        "meta_object_id": "1993-036AKH",
        "meta_epoch": "2025-12-08T04:32:22.387200",
        "meta_mean_motion": 13.92777063,
        "meta_eccentricity": 0.02417559,
        "meta_inclination": 74.0186,
        "meta_ra_of_asc_node": 142.5356,
        "meta_arg_of_pericenter": 312.8367,
        "meta_mean_anomaly": 228.9661,
        "meta_ephemeris_type": 0,
        "meta_classification_type": "U",
        "meta_norad_cat_id": 35439,
        "meta_element_set_no": 999,
        "meta_rev_at_epoch": 83897,
        "meta_bstar": 0.0018631415,
        "meta_mean_motion_dot": 3.041e-05,
        "meta_mean_motion_ddot": 0,
        "tle_line1": "1 35439U 93036AKH 25342.18914800  .00003041  00000+0  18631-2 0  9990",
        "tle_line2": "2 35439  74.0186 142.5356 0241755 312.8367 228.9661 13.92777063838976"
      },
      "geometry": {
        "type": "Point",
        "coordinates": [
          -58.240936479006756,
          49.444480411461555
        ]
      }
    },
    {
      "type": "Feature",
      "properties": {
        "norad_id": 35440,
        "name": "COSMOS 2251 DEB",
        "group": "cosmos-2251-debris",
        "lat": -45.049897962107266,
        "lon": 51.76132752477686,
        "alt_km": 702.1117958669774,
        "timestamp": "2025-12-08T21:31:05.062554+00:00",
        "meta_object_name": "COSMOS 2251 DEB",
        "meta_object_id": "1993-036AKJ",
        "meta_epoch": "2025-12-08T09:02:26.366784",
        "meta_mean_motion": 14.68778885,
        "meta_eccentricity": 0.0069124,
        "meta_inclination": 74.0147,
        "meta_ra_of_asc_node": 216.0804,
        "meta_arg_of_pericenter": 357.9704,
        "meta_mean_anomaly": 2.1175,
        "meta_ephemeris_type": 0,
        "meta_classification_type": "U",
        "meta_norad_cat_id": 35440,
        "meta_element_set_no": 999,
        "meta_rev_at_epoch": 68701,
        "meta_bstar": 0.00070103994,
        "meta_mean_motion_dot": 4.21e-05,
        "meta_mean_motion_ddot": 0,
        "tle_line1": "1 35440U 93036AKJ 25342.37669406  .00004210  00000+0  70104-3 0  9995",
        "tle_line2": "2 35440  74.0147 216.0804 0069124 357.9704   2.1175 14.68778885687019"
      },
      "geometry": {
        "type": "Point",
        "coordinates": [
          51.76132752477686,
          -45.049897962107266
        ]
      }
    },
    {
      "type": "Feature",
      "properties": {
        "norad_id": 35441,
        "name": "COSMOS 2251 DEB",
        "group": "cosmos-2251-debris",
        "lat": -74.05508141747298,
        "lon": -150.074549912826,
        "alt_km": 680.8191171558619,
        "timestamp": "2025-12-08T21:31:05.062564+00:00",
        "meta_object_name": "COSMOS 2251 DEB",
        "meta_object_id": "1993-036AKK",
        "meta_epoch": "2025-12-08T15:22:12.064224",
        "meta_mean_motion": 14.62488563,
        "meta_eccentricity": 0.00372452,
        "meta_inclination": 74.1346,
        "meta_ra_of_asc_node": 305.9066,
        "meta_arg_of_pericenter": 204.2337,
        "meta_mean_anomaly": 155.708,
        "meta_ephemeris_type": 0,
        "meta_classification_type": "U",
        "meta_norad_cat_id": 35441,
        "meta_element_set_no": 999,
        "meta_rev_at_epoch": 87370,
        "meta_bstar": 0.0024986548,
        "meta_mean_motion_dot": 0.00012785,
        "meta_mean_motion_ddot": 0,
        "tle_line1": "1 35441U 93036AKK 25342.64041741  .00012785  00000+0  24987-2 0  9995",
        "tle_line2": "2 35441  74.1346 305.9066 0037245 204.2337 155.7080 14.62488563873703"
      },
      "geometry": {
        "type": "Point",
        "coordinates": [
          -150.074549912826,
          -74.05508141747298
        ]
      }
    }
  ]
}